CRE (WAAS/PRN 138)      
1 28868U 05036A   24165.51912825 -.00000066  00000+0  00000+0 0  9998
2 28868   2.4233  85.6879 0003650   1.1372 255.0882  1.00272789 39096
IOR-W (EGNOS/PRN 126)   
1 28899U 05044A   24165.60544523 -.00000253  00000+0  00000+0 0  9995
2 28899   4.1860  42.4409 0001948  50.6339 170.7640  1.00271867 68166
GSAT-8 (GAGAN/PRN 127)  
1 37605U 11022A   24165.51627771  .00000093  00000+0  00000+0 0  9991
2 37605   0.2303  91.6832 0002628 198.5245 213.0517  1.00272457 45862
LUCH 5A (SDCM/PRN 140)  
1 37951U 11074B   24164.63243730 -.00000045  00000+0  00000+0 0  9991
2 37951   6.8743  85.0464 0003994   5.5472 205.3749  1.00272095 45689
SES-5 (EGNOS/PRN 136)   
1 38652U 12036A   24165.32126156  .00000041  00000+0  00000+0 0  9993
2 38652   0.0407 313.4621 0001885 129.7112 299.5742  1.00271839 37124
GSAT-10 (GAGAN/PRN 128) 
1 38779U 12051B   24165.22896883 -.00000158  00000+0  00000+0 0  9990
2 38779   0.0137 160.1973 0000948 195.1359  72.1051  1.00271840 42744
LUCH 5B (SDCM/PRN 125)  
1 38977U 12061A   24165.43059517 -.00000131  00000+0  00000+0 0  9990
2 38977   8.8811  56.7426 0003696  86.5954 257.5986  1.00272033 42245
ASTRA 5B (EGNOS/PRN 123)
1 39617U 14011B   24165.26785522  .00000144  00000+0  00000+0 0  9995
2 39617   0.0493 326.3151 0002149  89.9641 325.6867  1.00272304 37307
LUCH 5V (SDCM/PRN 141)  
1 39727U 14023A   24165.59575713 -.00000260  00000+0  00000+0 0  9995
2 39727   3.2893  76.0774 0002114  49.9840  85.4956  1.00268166 37005
GSAT-15 (GAGAN/PRN 139) 
1 41028U 15065A   24165.38382669 -.00000250  00000+0  00000+0 0  9991
2 41028   0.0563 261.8667 0003662 167.9354  64.0404  1.00273716 31457
E 117 W B (WAAS/PRN 131)
1 41589U 16038B   24164.48971102 -.00000007  00000+0  00000+0 0  9990
2 41589   0.0083 134.3260 0000353 341.3151 204.9517  1.00271286 29307
SES-15 (WAAS/PRN 133)   
1 42709U 17026A   24165.61647135  .00000069  00000+0  00000+0 0  9992
2 42709   0.0264  34.6624 0000287  23.7390 296.7862  1.00269976    80
QZS-2 (QZSS/PRN 194)    
1 42738U 17028A   24165.54155975 -.00000199  00000+0  00000+0 0  9999
2 42738  40.5784 253.8141 0759804 269.1885  75.1355  1.00285137   261
QZS-3 (QZSS/PRN 199)    
1 42917U 17048A   24165.60213837 -.00000339  00000+0  00000+0 0  9995
2 42917   0.0612 155.9440 0001419 277.0514 173.2083  1.00274857 24906
QZS-4 (QZSS/PRN 195)    
1 42965U 17062A   24165.38767272 -.00000354  00000+0  00000+0 0  9993
2 42965  40.5158 352.8342 0746542 271.4965 274.1204  1.00254411 24453
BEIDOU-3 G1 (PRN 130)   
1 43683U 18085A   24165.60466203 -.00000269  00000+0  00000+0 0  9997
2 43683   2.1834 109.7112 0003806 347.7045 162.6375  1.00276048 20709
BEIDOU-3 G2 (PRN 144)   
1 45344U 20017A   24165.52123799 -.00000134  00000+0  00000+0 0  9993
2 45344   2.3116  29.5127 0001223 102.5938  37.8924  1.00272198 15905
BEIDOU-3 G3 (PRN 143)   
1 45807U 20040A   24165.62980024 -.00000346  00000+0  00000+0 0  9991
2 45807   0.7718  41.9587 0005288 284.1328 273.6319  1.00273822 14713
GALAXY 30 (WAAS/PRN 135)
1 46114U 20056C   24165.62239918  .00000046  00000+0  00000+0 0  9995
2 46114   0.0151 339.3707 0001997  99.9744 282.1167  1.00273724 13934
QZS-1R (QZSS/PRN 196)   
1 49336U 21096A   24163.71683999 -.00000271  00000+0  00000+0 0  9990
2 49336  35.9344  90.6109 0755843 271.4338 290.9785  1.00261450  9637
